NORAD_CAT_ID,OBJECT_NAME,OBJECT_TYPE,EPOCH,MEAN_MOTION,ECCENTRICITY,INCLINATION,RA_OF_ASC_NODE,ARG_OF_PERICENTER,MEAN_ANOMALY,BSTAR,MEAN_MOTION_DOT,MEAN_MOTION_DDOT,TLE_LINE0,TLE_LINE1,TLE_LINE2,SEMIMAJOR_AXIS,PERIOD,APOGEE,PERIGEE,DECAYED
54087.0,STARLINK-5184,PAYLOAD,2022-11-28 22:00:01,15.73251486,0.0003959,53.2154,313.3598,3.1655,117.9652,5.3974e-05,6.976e-05,0.0,0 STARLINK-5184,1 54087U 22136AN  22332.91668981  .00006976  00000-0  53974-4 0  9998,2 54087  53.2154 313.3598 0003959   3.1655 117.9652 15.73251486  1301,6727.748000000001,91.53,352.277,346.95,0.0
54087.0,STARLINK-5184,PAYLOAD,2022-11-29 06:00:00,15.73237626,0.0004194,53.2154,311.7123,0.8018,209.2635,-0.00055351,-0.00077761,0.0,0 STARLINK-5184,1 54087U 22136AN  22333.25001157 -.00077761  00000-0 -55351-3 0  9994,2 54087  53.2154 311.7123 0004194   0.8018 209.2635 15.73237626  6734,6727.788000000001,91.531,352.475,346.831,0.0
54087.0,STARLINK-5184,PAYLOAD,2022-11-29 14:00:01,15.73210928,0.0004045,53.2156,310.0591,354.6581,304.4126,-0.00064405,-0.00090142,0.0,0 STARLINK-5184,1 54087U 22136AN  22333.58335648 -.00090142  00000-0 -64405-3 0  9993,2 54087  53.2156 310.0591 0004045 354.6581 304.4126 15.73210928  1304,6727.864000000001,91.533,352.45,347.0080000000001,0.0
54087.0,STARLINK-5184,PAYLOAD,2022-11-29 22:00:00,15.73190678,0.0003683,53.2164,308.4054,333.2914,54.6247,-0.0042573,-0.00560187,0.0,0 STARLINK-5184,1 54087U 22136AN  22333.91667824 -.00560187  00000-0 -42573-2 0  9996,2 54087  53.2164 308.4054 0003683 333.2914  54.6247 15.73190678  6849,6727.922,91.534,352.265,347.309,0.0
54087.0,STARLINK-5184,PAYLOAD,2022-11-30 06:00:00,15.72851097,0.0004628,53.2174,306.7564,300.8932,175.7115,-0.0089132,-0.01104934,0.0,0 STARLINK-5184,1 54087U 22136AN  22334.25001157 -.01104934  00000-0 -89132-2 0  9992,2 54087  53.2174 306.7564 0004628 300.8932 175.7115 15.72851097  6899,6728.89,91.553,353.869,347.641,0.0
54087.0,STARLINK-5184,PAYLOAD,2022-11-30 14:00:01,15.72055724,0.0006409,53.2174,305.1076,277.1554,287.532,-0.0095087,-0.01136731,0.0,0 STARLINK-5184,1 54087U 22136AN  22334.58335648 -.01136731  00000-0 -95087-2 0  9999,2 54087  53.2174 305.1076 0006409 277.1554 287.5320 15.72055724  1309,6731.16,91.6,357.339,348.711,0.0
54087.0,STARLINK-5184,PAYLOAD,2022-11-30 22:00:00,15.71223235,0.0006599,53.2175,303.4606,269.2019,22.4719,-0.009538,-0.0110433,0.0,0 STARLINK-5184,1 54087U 22136AN  22334.91667824 -.01104330  00000-0 -95380-2 0  9996,2 54087  53.2175 303.4606 0006599 269.2019  22.4719 15.71223235  6999,6733.5369999999975,91.648,359.845,350.958,0.0
54087.0,STARLINK-5184,PAYLOAD,2022-12-01 14:00:01,15.69621807,0.0003852,53.2174,300.1761,271.5604,191.2602,-0.010667,-0.01147062,0.0,0 STARLINK-5184,1 54087U 22136AN  22335.58334491 -.01147062  00000-0 -10667-1 0  9994,2 54087  53.2174 300.1761 0003852 271.5604 191.2602 15.69621807  1309,6738.116,91.742,362.577,357.386,0.0
54087.0,STARLINK-5184,PAYLOAD,2022-12-01 22:00:00,15.68852856,0.0001894,53.2169,298.5366,299.4687,247.438,-0.011582,-0.0121927,0.0,0 STARLINK-5184,1 54087U 22136AN  22335.91667824 -.01219270  00000-0 -11582-1 0  9998,2 54087  53.2169 298.5366 0001894 299.4687 247.4380 15.68852856  1304,6740.318,91.787,363.459,360.906,0.0
54087.0,STARLINK-5184,PAYLOAD,2022-12-02 00:00:00,15.68587229,0.0001516,53.2172,298.127,310.0782,347.7339,-0.0108,-0.011149,0.0,0 STARLINK-5184,1 54087U 22136AN  22336.00001157 -.01114900  00000-0 -10800-1 0  9996,2 54087  53.2172 298.1270 0001516 310.0782 347.7339 15.68587229  7162,6741.079000000002,91.802,363.966,361.922,0.0
54087.0,STARLINK-5184,PAYLOAD,2022-12-02 14:00:01,15.67166783,0.000104,53.217,295.2633,68.4784,283.7473,-0.011545,-0.0114136,0.0,0 STARLINK-5184,1 54087U 22136AN  22336.58334491 -.01141360  00000-0 -11545-1 0  9996,2 54087  53.2170 295.2633 0001040  68.4784 283.7473 15.67166783  1304,6745.151,91.886,367.718,366.315,0.0
54087.0,STARLINK-5184,PAYLOAD,2022-12-02 16:00:00,15.66959555,0.0001122,53.2174,294.8537,67.3502,35.2633,-0.011566,-0.01134519,0.0,0 STARLINK-5184,1 54087U 22136AN  22336.66667824 -.01134519  00000-0 -11566-1 0  9995,2 54087  53.2174 294.8537 0001122  67.3502  35.2633 15.66959555  7279,6745.746,91.898,368.36800000000005,366.854,0.0
54087.0,STARLINK-5184,PAYLOAD,2022-12-02 22:00:00,15.66353346,0.0001239,53.2167,293.6291,59.6824,13.7202,-0.011916,-0.01139839,0.0,0 STARLINK-5184,1 54087U 22136AN  22336.91667824 -.01139839  00000-0 -11916-1 0  9992,2 54087  53.2167 293.6291 0001239  59.6824  13.7202 15.66353346  1302,6747.486,91.933,370.187,368.515,0.0
54087.0,STARLINK-5184,PAYLOAD,2022-12-03 14:00:01,15.64744194,0.000117,53.217,290.3683,73.3083,159.5071,-0.013027,-0.01165065,0.0,0 STARLINK-5184,1 54087U 22136AN  22337.58334491 -.01165065  00000-0 -13027-1 0  9992,2 54087  53.2170 290.3683 0001170  73.3083 159.5071 15.64744194  7413,6752.111999999999,92.028,374.767,373.187,0.0
54087.0,STARLINK-5184,PAYLOAD,2022-12-03 22:00:00,15.63910162,0.0001104,53.217,288.7395,77.2353,233.834,-0.013095,-0.01135773,0.0,0 STARLINK-5184,1 54087U 22136AN  22337.91667824 -.01135773  00000-0 -13095-1 0  9996,2 54087  53.2170 288.7395 0001104  77.2353 233.8340 15.63910162  1300,6754.512,92.077,377.12300000000016,375.631,0.0
54087.0,STARLINK-5184,PAYLOAD,2022-12-04 14:00:01,15.62296606,0.0001207,53.2168,285.4904,60.405,44.212,-0.014212,-0.0115454,0.0,0 STARLINK-5184,1 54087U 22136AN  22338.58334491 -.01154540  00000-0 -14212-1 0  9996,2 54087  53.2168 285.4904 0001207  60.4050  44.2120 15.62296606  1308,6759.1619999999975,92.172,381.843,380.211,0.0
54087.0,STARLINK-5184,PAYLOAD,2022-12-04 22:00:00,15.61478112,0.0001289,53.2167,283.8676,65.7231,114.2071,-0.014574,-0.01147403,0.0,0 STARLINK-5184,1 54087U 22136AN  22338.91667824 -.01147403  00000-0 -14574-1 0  9993,2 54087  53.2167 283.8676 0001289  65.7231 114.2071 15.61478112  1300,6761.524,92.22,384.26,382.517,0.0
54087.0,STARLINK-5184,PAYLOAD,2022-12-05 14:00:01,15.59863517,0.000105,53.2169,280.6302,79.9487,247.728,-0.015786,-0.01165413,0.0,0 STARLINK-5184,1 54087U 22136AN  22339.58335648 -.01165413  00000-0 -15786-1 0  9990,2 54087  53.2169 280.6302 0001050  79.9487 247.7280 15.59863517  1307,6766.189,92.316,388.764,387.343,0.0
54087.0,STARLINK-5184,PAYLOAD,2022-12-05 22:00:01,15.59027283,0.000107,53.2176,279.0128,75.3435,324.7217,-0.0158199999999999,-0.0113431,0.0,0 STARLINK-5184,1 54087U 22136AN  22339.91668981 -.01134310  00000-0 -15820-1 0  9997,2 54087  53.2176 279.0128 0001070  75.3435 324.7217 15.59027283  1306,6768.608,92.365,391.197,389.749,0.0
54087.0,STARLINK-5184,PAYLOAD,2022-12-06 00:00:00,15.58822178,0.0001266,53.2175,278.6098,72.8861,75.056,-0.015903,-0.01131704,0.0,0 STARLINK-5184,1 54087U 22136AN  22340.00001157 -.01131704  00000-0 -15903-1 0  9991,2 54087  53.2175 278.6098 0001266  72.8861  75.0560 15.58822178  7799,6769.2019999999975,92.377,391.924,390.21,0.0
54087.0,STARLINK-5184,PAYLOAD,2022-12-06 14:00:01,15.57413756,0.0001311,53.2173,275.7876,72.9209,108.9569,-0.0171039999999999,-0.01151679,0.0,0 STARLINK-5184,1 54087U 22136AN  22340.58335648 -.01151679  00000-0 -17104-1 0  9997,2 54087  53.2173 275.7876 0001311  72.9209 108.9569 15.57413756  1300,6773.281999999997,92.461,396.035,394.259,0.0
54087.0,STARLINK-5184,PAYLOAD,2022-12-06 22:00:00,15.5660097,0.000124,53.217,274.1771,81.2827,169.9733,-0.017651,-0.01152582,0.0,0 STARLINK-5184,1 54087U 22136AN  22340.91667824 -.01152582  00000-0 -17651-1 0  9999,2 54087  53.2170 274.1771 0001240  81.2827 169.9733 15.56600970  1309,6775.64,92.509,398.345,396.665,0.0
54087.0,STARLINK-5184,PAYLOAD,2022-12-07 02:00:01,15.56114049,0.0001317,53.2172,273.374,84.4806,21.1692,-0.016142,-0.01045385,0.0,0 STARLINK-5184,1 54087U 22136AN  22341.08334491 -.01045385  00000-0 -16142-1 0  9995,2 54087  53.2172 273.3740 0001317  84.4806  21.1692 15.56114049  7963,6777.053000000001,92.538,399.811,398.026,0.0
54087.0,STARLINK-5184,PAYLOAD,2022-12-07 14:00:01,15.54703518,0.000107,53.2173,270.9618,59.603,327.7388,-0.012403,-0.00771901,0.0,0 STARLINK-5184,1 54087U 22136AN  22341.58334491 -.00771901  00000-0 -12403-1 0  9995,2 54087  53.2173 270.9618 0001070  59.6030 327.7388 15.54703518  8040,6781.151999999999,92.622,403.742,402.291,0.0
54087.0,STARLINK-5184,PAYLOAD,2022-12-07 22:00:00,15.53866184,0.000148,53.2167,269.3574,67.4999,26.3625,-0.012198,-0.00729346,0.0,0 STARLINK-5184,1 54087U 22136AN  22341.91667824 -.00729346  00000-0 -12198-1 0  9998,2 54087  53.2167 269.3574 0001480  67.4999  26.3625 15.53866184  1308,6783.587,92.672,406.456,404.449,0.0
54087.0,STARLINK-5184,PAYLOAD,2022-12-08 00:00:00,15.53927876,0.0001371,53.2169,268.9571,74.4647,125.7412,-0.018702,-0.01110271,0.0,0 STARLINK-5184,1 54087U 22136AN  22342.00001157 -.01110271  00000-0 -18702-1 0  9999,2 54087  53.2169 268.9571 0001371  74.4647 125.7412 15.53927876  8108,6783.408,92.668,406.203,404.343,0.0
54087.0,STARLINK-5184,PAYLOAD,2022-12-08 14:00:01,15.52527088,0.0001312,53.2172,266.1557,75.4681,148.3403,-0.020365,-0.01144901,0.0,0 STARLINK-5184,1 54087U 22136AN  22342.58334491 -.01144901  00000-0 -20365-1 0  9997,2 54087  53.2172 266.1557 0001312  75.4681 148.3403 15.52527088  1306,6787.488,92.752,410.24300000000005,408.462,0.0
54087.0,STARLINK-5184,PAYLOAD,2022-12-08 22:00:01,15.51701584,0.0001218,53.2176,264.5569,77.6637,209.7914,-0.020657,-0.01128771,0.0,0 STARLINK-5184,1 54087U 22136AN  22342.91668981 -.01128771  00000-0 -20657-1 0  9999,2 54087  53.2176 264.5569 0001218  77.6637 209.7914 15.51701584  1308,6789.895,92.801,412.587,410.9330000000001,0.0
54087.0,STARLINK-5184,PAYLOAD,2022-12-09 14:00:01,15.50037219,0.0001377,53.2174,261.366,78.1948,333.439,-0.0041537,-0.00230632,0.0,0 STARLINK-5184,1 54087U 22136AN  22343.58334491 -.00230632  00000-0 -41537-2 0  9999,2 54087  53.2174 261.3660 0001377  78.1948 333.4390 15.50037219  1309,6794.754,92.901,417.555,415.684,0.0
